NORAD_CAT_ID,OBJECT_NAME,OBJECT_TYPE,EPOCH,MEAN_MOTION,ECCENTRICITY,INCLINATION,RA_OF_ASC_NODE,ARG_OF_PERICENTER,MEAN_ANOMALY,BSTAR,MEAN_MOTION_DOT,MEAN_MOTION_DDOT,TLE_LINE0,TLE_LINE1,TLE_LINE2,SEMIMAJOR_AXIS,PERIOD,APOGEE,PERIGEE,DECAYED
52344.0,STARLINK-3851,PAYLOAD,2024-07-14 19:08:29,15.08843774,0.0001477,53.2183,25.6743,87.3934,272.7227,9.4088e-05,1.21e-05,0.0,0 STARLINK-3851,1 52344U 22045P   24196.79755985  .00001210  00000-0  94088-4 0  9995,2 52344  53.2183  25.6743 0001477  87.3934 272.7227 15.08843774124768,6917.869,95.437,540.756,538.712,0.0
52344.0,STARLINK-3851,PAYLOAD,2024-07-15 12:37:43,15.08835969,0.0001231,53.2176,22.4037,89.474,270.6393,0.00010571,1.395e-05,0.0,0 STARLINK-3851,1 52344U 22045P   24197.52620358  .00001395  00000-0  10571-3 0  9990,2 52344  53.2176  22.4037 0001231  89.4740 270.6393 15.08835969124877,6917.893,95.438,540.609,538.906,0.0
52344.0,STARLINK-3851,PAYLOAD,2024-07-15 22:10:02,15.08846784,0.000129,53.2172,20.6186,93.3738,266.7402,9.0991e-05,1.161e-05,0.0,0 STARLINK-3851,1 52344U 22045P   24197.92363582  .00001161  00000-0  90991-4 0  9993,2 52344  53.2172  20.6186 0001290  93.3738 266.7402 15.08846784124935,6917.86,95.437,540.617,538.832,0.0
52344.0,STARLINK-3851,PAYLOAD,2024-07-16 17:14:40,15.08835301,0.0001226,53.2175,17.0478,93.5017,266.6115,3.3642e-05,2.48e-06,0.0,0 STARLINK-3851,1 52344U 22045P   24198.71852496  .00000248  00000-0  33642-4 0  9993,2 52344  53.2175  17.0478 0001226  93.5017 266.6115 15.08835301125050,6917.895,95.438,540.608,538.912,0.0
52344.0,STARLINK-3851,PAYLOAD,2024-07-17 04:22:22,15.08843727,0.0001263,53.2181,14.9661,89.1513,270.9624,3.0658e-06,-2.39e-06,0.0,0 STARLINK-3851,1 52344U 22045P   24199.18219945 -.00000239  00000-0  30658-5 0  9997,2 52344  53.2181  14.9661 0001263  89.1513 270.9624 15.08843727125122,6917.869,95.437,540.608,538.86,0.0
52344.0,STARLINK-3851,PAYLOAD,2024-07-17 12:19:18,15.08842457,0.0002132,53.2173,13.4804,75.5324,284.5904,2.4683e-05,1.05e-06,0.0,0 STARLINK-3851,1 52344U 22045P   24199.51340539  .00000105  00000-0  24683-4 0  9999,2 52344  53.2173  13.4804 0002132  75.5324 284.5904 15.08842457125177,6917.873,95.437,541.213,538.263,0.0
52344.0,STARLINK-3851,PAYLOAD,2024-07-17 17:05:28,15.08831239,0.0001304,53.2181,12.591,80.6249,279.4891,-4.6371e-05,-1.026e-05,0.0,0 STARLINK-3851,1 52344U 22045P   24199.71213503 -.00001026  00000-0 -46371-4 0  9994,2 52344  53.2181  12.5910 0001304  80.6249 279.4891 15.08831239125205,6917.907,95.438,540.674,538.87,0.0
52344.0,STARLINK-3851,PAYLOAD,2024-07-18 04:13:10,15.08836746,0.0001383,53.2194,10.5119,94.395,265.7201,-5.2204e-05,-1.119e-05,0.0,0 STARLINK-3851,1 52344U 22045P   24200.17581317 -.00001119  00000-0 -52204-4 0  9993,2 52344  53.2194  10.5119 0001383  94.3950 265.7201 15.08836746125274,6917.89,95.438,540.712,538.799,0.0
52344.0,STARLINK-3851,PAYLOAD,2024-07-18 18:31:38,15.08838798,0.000122,53.2178,7.8371,102.2727,257.8402,9.227e-05,1.181e-05,0.0,0 STARLINK-3851,1 52344U 22045P   24200.77197126  .00001181  00000-0  92270-4 0  9994,2 52344  53.2178   7.8371 0001220 102.2727 257.8402 15.08838798125360,6917.884,95.438,540.593,538.905,0.0
52344.0,STARLINK-3851,PAYLOAD,2024-07-19 10:25:29,15.08841665,0.0001346,53.2179,4.8627,97.3444,262.7702,0.00017606,2.515e-05,0.0,0 STARLINK-3851,1 52344U 22045P   24201.43436949  .00002515  00000-0  17606-3 0  9998,2 52344  53.2179   4.8627 0001346  97.3444 262.7702 15.08841665125467,6917.875,95.437,540.671,538.809,0.0
52344.0,STARLINK-3851,PAYLOAD,2024-07-19 18:22:24,15.08847058,0.0001095,53.2174,3.3736,82.9695,277.1422,0.00021768,3.179e-05,0.0,0 STARLINK-3851,1 52344U 22045P   24201.76556565  .00003179  00000-0  21768-3 0  9992,2 52344  53.2174   3.3736 0001095  82.9695 277.1422 15.08847058125513,6917.859,95.437,540.481,538.966,0.0
52344.0,STARLINK-3851,PAYLOAD,2024-07-20 03:54:43,15.08848622,0.0001211,53.2176,1.5889,69.3306,290.7816,0.00021047,3.064e-05,0.0,0 STARLINK-3851,1 52344U 22045P   24202.16300497  .00003064  00000-0  21047-3 0  9991,2 52344  53.2176   1.5889 0001211  69.3306 290.7816 15.08848622125574,6917.854,95.437,540.557,538.881,0.0
52344.0,STARLINK-3851,PAYLOAD,2024-07-20 11:51:40,15.08829108,0.0001051,53.217,0.1038,78.5235,281.5875,-6.9903e-05,-1.4e-05,0.0,0 STARLINK-3851,1 52344U 22045P   24202.49421661 -.00001400  00000-0 -69903-4 0  9992,2 52344  53.2170   0.1038 0001051  78.5235 281.5875 15.08829108125621,6917.914,95.438,540.506,539.052,0.0
52344.0,STARLINK-3851,PAYLOAD,2024-07-20 18:13:12,15.08846784,0.0001183,53.2164,358.9138,70.4613,289.6507,0.00010296,1.351e-05,0.0,0 STARLINK-3851,1 52344U 22045P   24202.75916891  .00001351  00000-0  10296-3 0  9998,2 52344  53.2164 358.9138 0001183  70.4613 289.6507 15.08846784125660,6917.86,95.437,540.543,538.906,0.0
52344.0,STARLINK-3851,PAYLOAD,2024-07-21 10:07:03,15.0883856,0.0001401,53.2159,355.9418,53.8871,306.225,3.9543e-06,-2.25e-06,0.0,0 STARLINK-3851,1 52344U 22045P   24203.42157401 -.00000225  00000-0  39543-5 0  9995,2 52344  53.2159 355.9418 0001401  53.8871 306.2250 15.08838560125761,6917.885,95.438,540.719,538.781,0.0
52344.0,STARLINK-3851,PAYLOAD,2024-07-21 16:28:36,15.08842979,0.0001342,53.217,354.7493,73.0958,287.0181,1.4972e-05,-5e-07,0.0,0 STARLINK-3851,1 52344U 22045P   24203.68653241 -.00000050  00000-0  14972-4 0  9990,2 52344  53.2170 354.7493 0001342  73.0958 287.0181 15.08842979125801,6917.871,95.437,540.665,538.808,0.0
52344.0,STARLINK-3851,PAYLOAD,2024-07-23 16:10:11,15.08832822,8.07e-05,53.214,345.8244,93.9528,266.1556,0.00032225,4.844e-05,0.0,0 STARLINK-3851,1 52344U 22045P   24205.67373980  .00004844  00000-0  32225-3 0  9994,2 52344  53.2140 345.8244 0000807  93.9528 266.1556 15.08832822126106,6917.902,95.438,540.326,539.209,0.0
52344.0,STARLINK-3851,PAYLOAD,2024-07-24 09:39:25,15.08836176,0.0001266,53.2172,342.5571,92.6653,267.4484,1.961e-05,2.4e-07,0.0,0 STARLINK-3851,1 52344U 22045P   24206.40237856  .00000024  00000-0  19610-4 0  9997,2 52344  53.2172 342.5571 0001266  92.6653 267.4484 15.08836176126215,6917.892,95.438,540.633,538.881,0.0
52344.0,STARLINK-3851,PAYLOAD,2024-07-25 09:30:12,15.08837224,7.02e-05,53.2222,338.0979,310.2795,49.8136,0.00012786,1.748e-05,0.0,0 STARLINK-3851,1 52344U 22045P   24207.39597944  .00001748  00000-0  12786-3 0  9993,2 52344  53.2222 338.0979 0000702 310.2795  49.8136 15.08837224126360,6917.889,95.438,540.24,539.268,0.0
52344.0,STARLINK-3851,PAYLOAD,2024-07-26 09:20:58,15.08853787,0.0002259,53.239,333.6509,114.3261,245.7967,-6.7194e-05,-1.358e-05,0.0,0 STARLINK-3851,1 52344U 22045P   24208.38957080 -.00001358  00000-0 -67194-4 0  9997,2 52344  53.2390 333.6509 0002259 114.3261 245.7967 15.08853787126514,6917.838,95.437,541.266,538.141,0.0
52344.0,STARLINK-3851,PAYLOAD,2024-07-26 17:17:55,15.08842685,0.0001805,53.2188,332.1505,102.6213,257.4981,0.00010284,1.349e-05,0.0,0 STARLINK-3851,1 52344U 22045P   24208.72077606  .00001349  00000-0  10284-3 0  9997,2 52344  53.2188 332.1505 0001805 102.6213 257.4981 15.08842685126568,6917.872,95.437,540.986,538.489,0.0
52344.0,STARLINK-3851,PAYLOAD,2024-07-27 17:08:43,15.08833909,0.0001264,53.2167,327.6915,93.3676,266.7461,-4.1397e-05,-9.47e-06,0.0,0 STARLINK-3851,1 52344U 22045P   24209.71438827 -.00000947  00000-0 -41397-4 0  9998,2 52344  53.2167 327.6915 0001264  93.3676 266.7461 15.08833909126719,6917.899,95.438,540.638,538.89,0.0
52344.0,STARLINK-3851,PAYLOAD,2024-07-28 01:05:38,15.08837042,0.0001456,53.2168,326.2007,93.948,266.1678,4.6661e-05,4.55e-06,0.0,0 STARLINK-3851,1 52344U 22045P   24210.04558457  .00000455  00000-0  46661-4 0  9999,2 52344  53.2168 326.2007 0001456  93.9480 266.1678 15.08837042126760,6917.889,95.438,540.762,538.747,0.0
52344.0,STARLINK-3851,PAYLOAD,2024-07-28 13:48:41,15.08887703,9.85e-05,53.2177,323.8241,105.4507,254.6594,-0.00046262,-7.652e-05,0.0,0 STARLINK-3851,1 52344U 22045P   24210.57548010 -.00007652  00000-0 -46262-3 0  9995,2 52344  53.2177 323.8241 0000985 105.4507 254.6594 15.08887703126845,6917.735,95.435,540.281,538.918,0.0
52344.0,STARLINK-3851,PAYLOAD,2024-07-28 15:24:05,15.08866745,0.0001263,53.2167,323.5263,99.5355,260.578,-9.4696e-05,-1.796e-05,0.0,0 STARLINK-3851,1 52344U 22045P   24210.64172565 -.00001796  00000-0 -94696-4 0  9999,2 52344  53.2167 323.5263 0001263  99.5355 260.5780 15.08866745126856,6917.799,95.436,540.537,538.79,0.0
52344.0,STARLINK-3851,PAYLOAD,2024-07-29 00:56:25,15.08841128,0.0001322,53.2171,321.7391,98.6488,261.4653,0.00028712,4.285e-05,0.0,0 STARLINK-3851,1 52344U 22045P   24211.03918121  .00004285  00000-0  28712-3 0  9998,2 52344  53.2171 321.7391 0001322  98.6488 261.4653 15.08841128126910,6917.877,95.437,540.656,538.827,0.0
52344.0,STARLINK-3851,PAYLOAD,2024-07-29 13:39:30,15.08846044,0.0001359,53.2167,319.3623,90.0474,270.0674,0.00017442,2.49e-05,0.0,0 STARLINK-3851,1 52344U 22045P   24211.56909940  .00002490  00000-0  17442-3 0  9999,2 52344  53.2167 319.3623 0001359  90.0474 270.0674 15.08846044126996,6917.862,95.437,540.667,538.787,0.0
52344.0,STARLINK-3851,PAYLOAD,2024-07-30 13:30:17,15.08843167,0.0001408,53.2179,314.9005,94.6013,265.514,0.00014109,1.958e-05,0.0,0 STARLINK-3851,1 52344U 22045P   24212.56270110  .00001958  00000-0  14109-3 0  9995,2 52344  53.2179 314.9005 0001408  94.6013 265.5140 15.08843167127146,6917.871,95.437,540.71,538.762,0.0
52344.0,STARLINK-3851,PAYLOAD,2024-07-30 16:41:03,15.08850372,0.0001523,53.2175,314.3052,97.062,263.0545,0.00012984,1.78e-05,0.0,0 STARLINK-3851,1 52344U 22045P   24212.69517758  .00001780  00000-0  12984-3 0  9993,2 52344  53.2175 314.3052 0001523  97.0620 263.0545 15.08850372127167,6917.849,95.437,540.767,538.66,0.0
52344.0,STARLINK-3851,PAYLOAD,2024-07-31 11:45:41,15.08847827,0.0001585,53.2161,310.7366,93.6258,266.4915,0.0002705,4.021e-05,0.0,0 STARLINK-3851,1 52344U 22045P   24213.49005829  .00004021  00000-0  27050-3 0  9994,2 52344  53.2161 310.7366 0001585  93.6258 266.4915 15.08847827127289,6917.856,95.437,540.818,538.625,0.0
